NORAD_CAT_ID,OBJECT_NAME,OBJECT_TYPE,EPOCH,MEAN_MOTION,ECCENTRICITY,INCLINATION,RA_OF_ASC_NODE,ARG_OF_PERICENTER,MEAN_ANOMALY,BSTAR,MEAN_MOTION_DOT,MEAN_MOTION_DDOT,TLE_LINE0,TLE_LINE1,TLE_LINE2,SEMIMAJOR_AXIS,PERIOD,APOGEE,PERIGEE,DECAYED
52635.0,STARLINK-3978,PAYLOAD,2023-05-01 09:33:59,15.0883467,8.73e-05,53.2168,262.6335,92.5078,267.6014,3.1423e-05,2.12e-06,0.0,0 STARLINK-3978,1 52635U 22052AP  23121.39860122  .00000212  00000-0  31423-4 0  9994,2 52635  53.2168 262.6335 0000873  92.5078 267.6014 15.08834670 54001,6917.897,95.438,540.366,539.158,0.0
52635.0,STARLINK-3978,PAYLOAD,2023-05-01 12:44:45,15.08836184,7.66e-05,53.2159,262.0399,107.4603,252.6473,3.9252e-05,3.37e-06,0.0,0 STARLINK-3978,1 52635U 22052AP  23121.53108070  .00000337  00000-0  39252-4 0  9993,2 52635  53.2159 262.0399 0000766 107.4603 252.6473 15.08836184 53651,6917.892,95.438,540.287,539.227,0.0
52635.0,STARLINK-3978,PAYLOAD,2023-05-01 17:30:54,15.08840051,7.53e-05,53.2154,261.1473,105.6111,254.4964,2.488e-05,1.08e-06,0.0,0 STARLINK-3978,1 52635U 22052AP  23121.72979912  .00000108  00000-0  24880-4 0  9992,2 52635  53.2154 261.1473 0000753 105.6111 254.4964 15.08840051 53685,6917.88,95.438,540.266,539.224,0.0
52635.0,STARLINK-3978,PAYLOAD,2023-05-02 12:35:32,15.08835871,9.4e-05,53.2156,257.5781,136.2262,223.8805,0.00041332,6.296e-05,0.0,0 STARLINK-3978,1 52635U 22052AP  23122.52468038  .00006296  00000-0  41332-3 0  9997,2 52635  53.2156 257.5781 0000940 136.2262 223.8805 15.08835871 54176,6917.893,95.438,540.408,539.108,0.0
52635.0,STARLINK-3978,PAYLOAD,2023-05-02 18:57:04,15.08852639,6.71e-05,53.2159,256.3909,71.5397,288.5668,0.00036988,5.606e-05,0.0,0 STARLINK-3978,1 52635U 22052AP  23122.78963460  .00005606  00000-0  36988-3 0  9999,2 52635  53.2159 256.3909 0000671  71.5397 288.5668 15.08852639 54210,6917.842,95.437,540.171,539.243,0.0
52635.0,STARLINK-3978,PAYLOAD,2023-05-03 09:15:33,15.08844817,0.0001332,53.2156,253.7127,68.417,291.6964,0.00015576,2.192e-05,0.0,0 STARLINK-3978,1 52635U 22052AP  23123.38579960  .00002192  00000-0  15576-3 0  9991,2 52635  53.2156 253.7127 0001332  68.4170 291.6964 15.08844817 54302,6917.866,95.437,540.652,538.809,0.0
52635.0,STARLINK-3978,PAYLOAD,2023-05-03 14:01:42,15.08844107,7.48e-05,53.216,252.8209,75.9425,284.1651,0.00013376,1.842e-05,0.0,0 STARLINK-3978,1 52635U 22052AP  23123.58451849  .00001842  00000-0  13376-3 0  9995,2 52635  53.2160 252.8209 0000748  75.9425 284.1651 15.08844107 53967,6917.868,95.437,540.25,539.215,0.0
52635.0,STARLINK-3978,PAYLOAD,2023-05-03 15:37:05,15.08848575,6.4e-05,53.2158,252.5258,66.902,293.2039,0.00023217,3.41e-05,0.0,0 STARLINK-3978,1 52635U 22052AP  23123.65075702  .00003410  00000-0  23217-3 0  9991,2 52635  53.2158 252.5258 0000640  66.9020 293.2039 15.08848575 53972,6917.854,95.437,540.162,539.276,0.0
52635.0,STARLINK-3978,PAYLOAD,2023-05-04 09:06:20,15.08838984,6.26e-05,53.2144,249.2565,73.6309,286.4752,-2.792e-05,-7.32e-06,0.0,0 STARLINK-3978,1 52635U 22052AP  23124.37939920 -.00000732  00000-0 -27920-4 0  9994,2 52635  53.2144 249.2565 0000626  73.6309 286.4752 15.08838984 54453,6917.883,95.438,540.182,539.315,0.0
52635.0,STARLINK-3978,PAYLOAD,2023-05-04 13:52:29,15.0884445,6.35e-05,53.2154,248.3634,70.0088,290.0973,0.00016114,2.278e-05,0.0,0 STARLINK-3978,1 52635U 22052AP  23124.57811666  .00002278  00000-0  16114-3 0  9999,2 52635  53.2154 248.3634 0000635  70.0088 290.0973 15.08844450 54110,6917.867,95.437,540.171,539.293,0.0
52635.0,STARLINK-3978,PAYLOAD,2023-05-05 12:07:53,15.08833903,6.06e-05,53.2146,244.2017,79.2861,280.8199,-2.4977e-05,-6.85e-06,0.0,0 STARLINK-3978,1 52635U 22052AP  23125.50548310 -.00000685  00000-0 -24977-4 0  9995,2 52635  53.2146 244.2017 0000606  79.2861 280.8199 15.08833903 54623,6917.899,95.438,540.183,539.345,0.0
52635.0,STARLINK-3978,PAYLOAD,2023-05-05 15:18:40,15.08838612,8.17e-05,53.2161,243.6056,70.8211,289.2869,5.7675e-05,6.3e-06,0.0,0 STARLINK-3978,1 52635U 22052AP  23125.63796315  .00000630  00000-0  57675-4 0  9998,2 52635  53.2161 243.6056 0000817  70.8211 289.2869 15.08838612 54276,6917.885,95.438,540.315,539.184,0.0
52635.0,STARLINK-3978,PAYLOAD,2023-05-06 15:09:26,15.08850868,7.24e-05,53.2149,239.1462,82.5407,277.5667,0.00023992,3.534e-05,0.0,0 STARLINK-3978,1 52635U 22052AP  23126.63155824  .00003534  00000-0  23992-3 0  9993,2 52635  53.2149 239.1462 0000724  82.5407 277.5667 15.08850868 54427,6917.847,95.437,540.213,539.211,0.0
52635.0,STARLINK-3978,PAYLOAD,2023-05-07 00:41:45,15.0884493,8.71e-05,53.2163,237.3637,81.606,278.5031,0.00017033,2.424e-05,0.0,0 STARLINK-3978,1 52635U 22052AP  23127.02900141  .00002424  00000-0  17033-3 0  9993,2 52635  53.2163 237.3637 0000871  81.6060 278.5031 15.08844930 54851,6917.865,95.437,540.333,539.128,0.0
52635.0,STARLINK-3978,PAYLOAD,2023-05-07 13:24:51,15.08838246,9.28e-05,53.2153,234.9773,109.1456,250.9636,4.6578e-05,4.54e-06,0.0,0 STARLINK-3978,1 52635U 22052AP  23127.55892535  .00000454  00000-0  46578-4 0  9996,2 52635  53.2153 234.9773 0000928 109.1456 250.9636 15.08838246 54568,6917.886,95.438,540.393,539.109,0.0
52635.0,STARLINK-3978,PAYLOAD,2023-05-08 13:15:38,15.08838778,5.5e-05,53.2144,230.5191,124.0871,236.0173,0.00038256,5.806e-05,0.0,0 STARLINK-3978,1 52635U 22052AP  23128.55252696  .00005806  00000-0  38256-3 0  9994,2 52635  53.2144 230.5191 0000550 124.0871 236.0173 15.08838778 54710,6917.884,95.438,540.13,539.369,0.0
52635.0,STARLINK-3978,PAYLOAD,2023-05-09 09:55:39,15.08838453,8.29e-05,53.2144,226.6537,110.2505,249.8576,0.00015705,2.213e-05,0.0,0 STARLINK-3978,1 52635U 22052AP  23129.41364724  .00002213  00000-0  15705-3 0  9999,2 52635  53.2144 226.6537 0000829 110.2505 249.8576 15.08838453 55215,6917.885,95.438,540.324,539.177,0.0
52635.0,STARLINK-3978,PAYLOAD,2023-05-09 13:06:25,15.08842099,7.59e-05,53.2152,226.0607,105.8253,254.2823,0.00015802,2.228e-05,0.0,0 STARLINK-3978,1 52635U 22052AP  23129.54612594  .00002228  00000-0  15802-3 0  9998,2 52635  53.2152 226.0607 0000759 105.8253 254.2823 15.08842099 54864,6917.874,95.437,540.264,539.214,0.0
52635.0,STARLINK-3978,PAYLOAD,2023-05-10 12:57:12,15.08840364,7.66e-05,53.2146,221.5991,91.292,268.816,8.2035e-05,1.018e-05,0.0,0 STARLINK-3978,1 52635U 22052AP  23130.53972910  .00001018  00000-0  82035-4 0  9999,2 52635  53.2146 221.5991 0000766  91.2920 268.8160 15.08840364 55016,6917.879,95.438,540.274,539.214,0.0
52635.0,STARLINK-3978,PAYLOAD,2023-05-11 11:12:36,15.08840462,8e-05,53.2148,217.44,92.2924,267.816,7.5173e-05,9.09e-06,0.0,0 STARLINK-3978,1 52635U 22052AP  23131.46709026  .00000909  00000-0  75173-4 0  9991,2 52635  53.2148 217.4400 0000800  92.2924 267.8160 15.08840462 55154,6917.879,95.438,540.297,539.191,0.0
52635.0,STARLINK-3978,PAYLOAD,2023-05-11 12:47:59,15.08844737,0.0001066,53.2158,217.1466,121.7838,238.3258,0.0001485,2.077e-05,0.0,0 STARLINK-3978,1 52635U 22052AP  23131.53332798  .00002077  00000-0  14850-3 0  9999,2 52635  53.2158 217.1466 0001066 121.7838 238.3258 15.08844737 55162,6917.866,95.437,540.468,538.993,0.0
52635.0,STARLINK-3978,PAYLOAD,2023-05-11 22:20:18,15.08839784,9.39e-05,53.2158,215.3585,109.1926,250.9167,2.7661e-05,1.53e-06,0.0,0 STARLINK-3978,1 52635U 22052AP  23131.93076908  .00000153  00000-0  27661-4 0  9999,2 52635  53.2158 215.3585 0000939 109.1926 250.9167 15.08839784 55592,6917.881,95.438,540.396,539.096,0.0
52635.0,STARLINK-3978,PAYLOAD,2023-05-13 12:29:33,15.08841503,9.39e-05,53.2152,208.22,88.6939,271.4161,6.4582e-05,7.4e-06,0.0,0 STARLINK-3978,1 52635U 22052AP  23133.52053094  .00000740  00000-0  64582-4 0  9992,2 52635  53.2152 208.2200 0000939  88.6939 271.4161 15.08841503 55837,6917.876,95.437,540.39,539.091,0.0
52635.0,STARLINK-3978,PAYLOAD,2023-05-13 23:37:16,15.08834918,0.0001031,53.2163,206.1399,97.989,262.122,1.6182e-05,-3e-07,0.0,0 STARLINK-3978,1 52635U 22052AP  23133.98421545 -.00000030  00000-0  16182-4 0  9998,2 52635  53.2163 206.1399 0001031  97.9890 262.1220 15.08834918 55901,6917.896,95.438,540.474,539.048,0.0
52635.0,STARLINK-3978,PAYLOAD,2023-05-14 12:20:21,15.08834713,0.0001001,53.2159,203.76,71.8949,288.2152,3.3224e-05,2.41e-06,0.0,0 STARLINK-3978,1 52635U 22052AP  23134.51414139  .00000241  00000-0  33224-4 0  9998,2 52635  53.2159 203.7600 0001001  71.8949 288.2152 15.08834713 55611,6917.897,95.438,540.454,539.069,0.0
52635.0,STARLINK-3978,PAYLOAD,2023-05-15 10:35:44,15.08845221,9.42e-05,53.2154,199.596,76.3245,283.7852,0.00012737,1.74e-05,0.0,0 STARLINK-3978,1 52635U 22052AP  23135.44149172  .00001740  00000-0  12737-3 0  9993,2 52635  53.2154 199.5960 0000942  76.3245 283.7852 15.08845221 56129,6917.864,95.437,540.381,539.078,0.0
52635.0,STARLINK-3978,PAYLOAD,2023-05-16 10:26:32,15.08838661,9.38e-05,53.215,195.1351,75.6789,284.4307,0.00012357,1.679e-05,0.0,0 STARLINK-3978,1 52635U 22052AP  23136.43509688  .00001679  00000-0  12357-3 0  9994,2 52635  53.2150 195.1351 0000938  75.6789 284.4307 15.08838661 56270,6917.884,95.438,540.398,539.101,0.0
52635.0,STARLINK-3978,PAYLOAD,2023-05-17 10:17:19,15.088427,0.0001027,53.2153,190.6751,78.4834,281.6273,1.5754e-05,-3.7e-07,0.0,0 STARLINK-3978,1 52635U 22052AP  23137.42869530 -.00000037  00000-0  15754-4 0  9992,2 52635  53.2153 190.6751 0001027  78.4834 281.6273 15.08842700 56055,6917.872,95.437,540.448,539.027,0.0
52635.0,STARLINK-3978,PAYLOAD,2023-05-18 11:43:29,15.08838818,0.0001099,53.2161,185.9187,87.3915,272.7203,4.6931e-05,4.59e-06,0.0,0 STARLINK-3978,1 52635U 22052AP  23138.48853626  .00000459  00000-0  46931-4 0  9996,2 52635  53.2161 185.9187 0001099  87.3915 272.7203 15.08838818 56589,6917.884,95.438,540.509,538.989,0.0
52635.0,STARLINK-3978,PAYLOAD,2023-05-18 13:18:52,15.08840253,0.0001068,53.2158,185.6198,87.6361,272.4754,5.601e-05,6.04e-06,0.0,0 STARLINK-3978,1 52635U 22052AP  23138.55477479  .00000604  00000-0  56010-4 0  9993,2 52635  53.2158 185.6198 0001068  87.6361 272.4754 15.08840253 56223,6917.88,95.438,540.483,539.006,0.0
